{"fetched_at":"2026-07-23T17:55:37.447Z","source":"https://celestrak.org/NORAD/elements/gp.php?NAME=JILIN&FORMAT=JSON","constellation":"jilin-1-early","records":[{"OBJECT_NAME":"JILIN-1","OBJECT_ID":"2015-057D","EPOCH":"2026-07-23T07:06:25.913664","CLASSIFICATION_TYPE":"U","MEAN_MOTION":14.78210515,"ECCENTRICITY":0.00178935,"INCLINATION":97.6525,"RA_OF_ASC_NODE":201.8737,"ARG_OF_PERICENTER":141.5363,"MEAN_ANOMALY":218.7128,"EPHEMERIS_TYPE":0,"NORAD_CAT_ID":40961,"ELEMENT_SET_NO":999,"REV_AT_EPOCH":58094,"BSTAR":0.00010012132,"MEAN_MOTION_DOT":0.00000679,"MEAN_MOTION_DDOT":0},{"OBJECT_NAME":"JILIN-1 03","OBJECT_ID":"2017-002B","EPOCH":"2026-07-23T04:06:56.735136","CLASSIFICATION_TYPE":"U","MEAN_MOTION":15.42386868,"ECCENTRICITY":0.00073062,"INCLINATION":97.1959,"RA_OF_ASC_NODE":210.7699,"ARG_OF_PERICENTER":57.9139,"MEAN_ANOMALY":302.2817,"EPHEMERIS_TYPE":0,"NORAD_CAT_ID":41914,"ELEMENT_SET_NO":999,"REV_AT_EPOCH":52740,"BSTAR":0.00033910532,"MEAN_MOTION_DOT":0.0001458,"MEAN_MOTION_DDOT":0},{"OBJECT_NAME":"JILIN-1 04","OBJECT_ID":"2017-074A","EPOCH":"2026-07-23T06:36:57.722112","CLASSIFICATION_TYPE":"U","MEAN_MOTION":15.43293985,"ECCENTRICITY":0.00050682,"INCLINATION":97.4873,"RA_OF_ASC_NODE":314.8774,"ARG_OF_PERICENTER":78.4737,"MEAN_ANOMALY":281.7079,"EPHEMERIS_TYPE":0,"NORAD_CAT_ID":43022,"ELEMENT_SET_NO":999,"REV_AT_EPOCH":47983,"BSTAR":0.000304338,"MEAN_MOTION_DOT":0.00013468,"MEAN_MOTION_DDOT":0},{"OBJECT_NAME":"JILIN-1 05","OBJECT_ID":"2017-074B","EPOCH":"2026-07-23T06:08:31.235712","CLASSIFICATION_TYPE":"U","MEAN_MOTION":15.34379537,"ECCENTRICITY":0.00066168,"INCLINATION":97.4876,"RA_OF_ASC_NODE":310.9146,"ARG_OF_PERICENTER":102.4165,"MEAN_ANOMALY":257.7819,"EPHEMERIS_TYPE":0,"NORAD_CAT_ID":43023,"ELEMENT_SET_NO":999,"REV_AT_EPOCH":47953,"BSTAR":0.00026020831,"MEAN_MOTION_DOT":0.00008587,"MEAN_MOTION_DDOT":0},{"OBJECT_NAME":"JILIN-1 06","OBJECT_ID":"2017-074C","EPOCH":"2026-07-23T07:10:00.799104","CLASSIFICATION_TYPE":"U","MEAN_MOTION":15.34070165,"ECCENTRICITY":0.00084171,"INCLINATION":97.4801,"RA_OF_ASC_NODE":307.918,"ARG_OF_PERICENTER":110.3198,"MEAN_ANOMALY":249.895,"EPHEMERIS_TYPE":0,"NORAD_CAT_ID":43024,"ELEMENT_SET_NO":999,"REV_AT_EPOCH":47937,"BSTAR":0.00020761534,"MEAN_MOTION_DOT":0.0000677,"MEAN_MOTION_DDOT":0},{"OBJECT_NAME":"JILIN-1 07","OBJECT_ID":"2018-008E","EPOCH":"2026-07-23T04:58:42.561984","CLASSIFICATION_TYPE":"U","MEAN_MOTION":15.35260981,"ECCENTRICITY":0.00061744,"INCLINATION":97.1773,"RA_OF_ASC_NODE":223.1873,"ARG_OF_PERICENTER":291.5961,"MEAN_ANOMALY":68.4625,"EPHEMERIS_TYPE":0,"NORAD_CAT_ID":43159,"ELEMENT_SET_NO":999,"REV_AT_EPOCH":47052,"BSTAR":0.00025544871,"MEAN_MOTION_DOT":0.00008674,"MEAN_MOTION_DDOT":0},{"OBJECT_NAME":"JILIN-1 08","OBJECT_ID":"2018-008F","EPOCH":"2026-07-23T07:10:15.752352","CLASSIFICATION_TYPE":"U","MEAN_MOTION":15.34077248,"ECCENTRICITY":0.00044279,"INCLINATION":97.181,"RA_OF_ASC_NODE":222.551,"ARG_OF_PERICENTER":317.2699,"MEAN_ANOMALY":42.82,"EPHEMERIS_TYPE":0,"NORAD_CAT_ID":43160,"ELEMENT_SET_NO":999,"REV_AT_EPOCH":47048,"BSTAR":0.0001767314,"MEAN_MOTION_DOT":0.00005752,"MEAN_MOTION_DDOT":0},{"OBJECT_NAME":"JILIN-1 09","OBJECT_ID":"2019-005B","EPOCH":"2026-07-23T05:45:33.015744","CLASSIFICATION_TYPE":"U","MEAN_MOTION":15.20789698,"ECCENTRICITY":0.00015697,"INCLINATION":97.4739,"RA_OF_ASC_NODE":298.9022,"ARG_OF_PERICENTER":15.7377,"MEAN_ANOMALY":344.3907,"EPHEMERIS_TYPE":0,"NORAD_CAT_ID":43943,"ELEMENT_SET_NO":999,"REV_AT_EPOCH":41462,"BSTAR":0.00018866744,"MEAN_MOTION_DOT":0.00004088,"MEAN_MOTION_DDOT":0},{"OBJECT_NAME":"JILIN-1 10","OBJECT_ID":"2019-005E","EPOCH":"2026-07-23T06:13:36.945696","CLASSIFICATION_TYPE":"U","MEAN_MOTION":15.2607211,"ECCENTRICITY":0.00092514,"INCLINATION":97.4791,"RA_OF_ASC_NODE":303.0745,"ARG_OF_PERICENTER":144.0774,"MEAN_ANOMALY":216.1088,"EPHEMERIS_TYPE":0,"NORAD_CAT_ID":43946,"ELEMENT_SET_NO":999,"REV_AT_EPOCH":41481,"BSTAR":0.00021894018,"MEAN_MOTION_DOT":0.00005574,"MEAN_MOTION_DDOT":0}]}
