JILIN-1                 
1 40961U 15057D   26204.29613326  .00000679  00000+0  10012-3 0  9992
2 40961  97.6525 201.8737 0017893 141.5363 218.7128 14.78210515580944
JILIN-1 03              
1 41914U 17002B   26204.17148999  .00014580  00000+0  33911-3 0  9998
2 41914  97.1959 210.7699 0007306  57.9139 302.2817 15.42386868527407
JILIN-1 04              
1 43022U 17074A   26204.27566808  .00013468  00000+0  30434-3 0  9994
2 43022  97.4873 314.8774 0005068  78.4737 281.7079 15.43293985479834
JILIN-1 05              
1 43023U 17074B   26204.25591708  .00008587  00000+0  26021-3 0  9993
2 43023  97.4876 310.9146 0006616 102.4165 257.7819 15.34379537479531
JILIN-1 06              
1 43024U 17074C   26204.29862036  .00006770  00000+0  20762-3 0  9991
2 43024  97.4801 307.9180 0008417 110.3198 249.8950 15.34070165479374
JILIN-1 07              
1 43159U 18008E   26204.20743706  .00008674  00000+0  25545-3 0  9990
2 43159  97.1773 223.1873 0006174 291.5961  68.4625 15.35260981470524
JILIN-1 08              
1 43160U 18008F   26204.29879343  .00005752  00000+0  17673-3 0  9995
2 43160  97.1810 222.5510 0004427 317.2699  42.8200 15.34077248470483
JILIN-1 09              
1 43943U 19005B   26204.23996546  .00004088  00000+0  18867-3 0  9998
2 43943  97.4739 298.9022 0001569  15.7377 344.3907 15.20789698414629
JILIN-1 10              
1 43946U 19005E   26204.25945539  .00005574  00000+0  21894-3 0  9994
2 43946  97.4791 303.0745 0009251 144.0774 216.1088 15.26072110414810
